CCSDS_OMM_VERS = 2.0
CREATION_DATE  = 
ORIGINATOR     = 

OBJECT_NAME    = SL-16 R/B
OBJECT_ID      = 1993-016B
CENTER_NAME    = EARTH
REF_FRAME      = TEME
TIME_SYSTEM    = UTC
MEAN_ELEMENT_THEORY = SGP/SGP4

EPOCH          = 2026-01-20T22:21:09.329472
MEAN_MOTION    = 14.15294696
ECCENTRICITY   = .00090307
INCLINATION    = 71.0087
RA_OF_ASC_NODE = 315.4900
ARG_OF_PERICENTER = 24.7752
MEAN_ANOMALY   = 335.3803

EPHEMERIS_TYPE = 0
CLASSIFICATION_TYPE = U
NORAD_CAT_ID   = 22566
ELEMENT_SET_NO = 999
REV_AT_EPOCH   = 69541
BSTAR          = .14897863E-3
MEAN_MOTION_DOT = .243E-5
MEAN_MOTION_DDOT = 0

CCSDS_OMM_VERS = 2.0
CREATION_DATE  = 
ORIGINATOR     = 

OBJECT_NAME    = COSMOS 2242
OBJECT_ID      = 1993-024A
CENTER_NAME    = EARTH
REF_FRAME      = TEME
TIME_SYSTEM    = UTC
MEAN_ELEMENT_THEORY = SGP/SGP4

EPOCH          = 2026-01-20T21:25:54.546816
MEAN_MOTION    = 14.96308358
ECCENTRICITY   = .00179857
INCLINATION    = 82.5219
RA_OF_ASC_NODE = 312.4211
ARG_OF_PERICENTER = 103.9692
MEAN_ANOMALY   = 256.3532

EPHEMERIS_TYPE = 0
CLASSIFICATION_TYPE = U
NORAD_CAT_ID   = 22626
ELEMENT_SET_NO = 999
REV_AT_EPOCH   = 77324
BSTAR          = .46001052E-3
MEAN_MOTION_DOT = .5241E-4
MEAN_MOTION_DDOT = 0

CCSDS_OMM_VERS = 2.0
CREATION_DATE  = 
ORIGINATOR     = 

OBJECT_NAME    = SL-16 R/B
OBJECT_ID      = 1993-059B
CENTER_NAME    = EARTH
REF_FRAME      = TEME
TIME_SYSTEM    = UTC
MEAN_ELEMENT_THEORY = SGP/SGP4

EPOCH          = 2026-01-20T16:38:20.183424
MEAN_MOTION    = 14.17223643
ECCENTRICITY   = .00195404
INCLINATION    = 70.9908
RA_OF_ASC_NODE = 112.3451
ARG_OF_PERICENTER = 281.7820
MEAN_ANOMALY   = 78.1112

EPHEMERIS_TYPE = 0
CLASSIFICATION_TYPE = U
NORAD_CAT_ID   = 22803
ELEMENT_SET_NO = 999
REV_AT_EPOCH   = 67273
BSTAR          = .68868552E-4
MEAN_MOTION_DOT = .91E-6
MEAN_MOTION_DDOT = 0

CCSDS_OMM_VERS = 2.0
CREATION_DATE  = 
ORIGINATOR     = 

OBJECT_NAME    = ARIANE 40 R/B
OBJECT_ID      = 1993-061H
CENTER_NAME    = EARTH
REF_FRAME      = TEME
TIME_SYSTEM    = UTC
MEAN_ELEMENT_THEORY = SGP/SGP4

EPOCH          = 2026-01-20T19:03:59.100192
MEAN_MOTION    = 14.32830273
ECCENTRICITY   = .00116749
INCLINATION    = 98.5015
RA_OF_ASC_NODE = 90.6032
ARG_OF_PERICENTER = 69.0480
MEAN_ANOMALY   = 291.1953

EPHEMERIS_TYPE = 0
CLASSIFICATION_TYPE = U
NORAD_CAT_ID   = 22830
ELEMENT_SET_NO = 999
REV_AT_EPOCH   = 68724
BSTAR          = .18409383E-3
MEAN_MOTION_DOT = .459E-5
MEAN_MOTION_DDOT = 0

CCSDS_OMM_VERS = 2.0
CREATION_DATE  = 
ORIGINATOR     = 

OBJECT_NAME    = COSMOS 2278
OBJECT_ID      = 1994-023A
CENTER_NAME    = EARTH
REF_FRAME      = TEME
TIME_SYSTEM    = UTC
MEAN_ELEMENT_THEORY = SGP/SGP4

EPOCH          = 2026-01-20T22:18:40.382784
MEAN_MOTION    = 14.14366231
ECCENTRICITY   = .00063988
INCLINATION    = 71.0541
RA_OF_ASC_NODE = 275.0204
ARG_OF_PERICENTER = 105.3620
MEAN_ANOMALY   = 254.8210

EPHEMERIS_TYPE = 0
CLASSIFICATION_TYPE = U
NORAD_CAT_ID   = 23087
ELEMENT_SET_NO = 999
REV_AT_EPOCH   = 63805
BSTAR          = .57456986E-4
MEAN_MOTION_DOT = .63E-6
MEAN_MOTION_DDOT = 0

CCSDS_OMM_VERS = 2.0
CREATION_DATE  = 
ORIGINATOR     = 

OBJECT_NAME    = SL-16 R/B
OBJECT_ID      = 1994-023B
CENTER_NAME    = EARTH
REF_FRAME      = TEME
TIME_SYSTEM    = UTC
MEAN_ELEMENT_THEORY = SGP/SGP4

EPOCH          = 2026-01-20T20:33:12.105504
MEAN_MOTION    = 14.15007021
ECCENTRICITY   = .00038238
INCLINATION    = 70.9998
RA_OF_ASC_NODE = 171.3399
ARG_OF_PERICENTER = 331.0774
MEAN_ANOMALY   = 29.0137

EPHEMERIS_TYPE = 0
CLASSIFICATION_TYPE = U
NORAD_CAT_ID   = 23088
ELEMENT_SET_NO = 999
REV_AT_EPOCH   = 63932
BSTAR          = .3549771E-4
MEAN_MOTION_DOT = .21E-6
MEAN_MOTION_DDOT = 0

CCSDS_OMM_VERS = 2.0
CREATION_DATE  = 
ORIGINATOR     = 

OBJECT_NAME    = SL-16 R/B
OBJECT_ID      = 1994-074B
CENTER_NAME    = EARTH
REF_FRAME      = TEME
TIME_SYSTEM    = UTC
MEAN_ELEMENT_THEORY = SGP/SGP4

EPOCH          = 2026-01-20T23:23:19.707360
MEAN_MOTION    = 14.79342692
ECCENTRICITY   = .00071688
INCLINATION    = 97.7165
RA_OF_ASC_NODE = 53.7128
ARG_OF_PERICENTER = 28.2527
MEAN_ANOMALY   = 36.7441

EPHEMERIS_TYPE = 0
CLASSIFICATION_TYPE = U
NORAD_CAT_ID   = 23343
ELEMENT_SET_NO = 999
REV_AT_EPOCH   = 68019
BSTAR          = .13269851E-3
MEAN_MOTION_DOT = .939E-5
MEAN_MOTION_DDOT = 0

CCSDS_OMM_VERS = 2.0
CREATION_DATE  = 
ORIGINATOR     = 

OBJECT_NAME    = SL-16 R/B
OBJECT_ID      = 1994-077B
CENTER_NAME    = EARTH
REF_FRAME      = TEME
TIME_SYSTEM    = UTC
MEAN_ELEMENT_THEORY = SGP/SGP4

EPOCH          = 2026-01-20T15:28:21.098496
MEAN_MOTION    = 14.15558074
ECCENTRICITY   = .00048392
INCLINATION    = 70.9833
RA_OF_ASC_NODE = 93.5693
ARG_OF_PERICENTER = 254.3130
MEAN_ANOMALY   = 105.7460

EPHEMERIS_TYPE = 0
CLASSIFICATION_TYPE = U
NORAD_CAT_ID   = 23405
ELEMENT_SET_NO = 999
REV_AT_EPOCH   = 60943
BSTAR          = .83183993E-4
MEAN_MOTION_DOT = .115E-5
MEAN_MOTION_DDOT = 0

CCSDS_OMM_VERS = 2.0
CREATION_DATE  = 
ORIGINATOR     = 

OBJECT_NAME    = ARIANE 40+ R/B
OBJECT_ID      = 1995-021B
CENTER_NAME    = EARTH
REF_FRAME      = TEME
TIME_SYSTEM    = UTC
MEAN_ELEMENT_THEORY = SGP/SGP4

EPOCH          = 2026-01-20T19:17:57.405696
MEAN_MOTION    = 14.39730891
ECCENTRICITY   = .00056829
INCLINATION    = 98.4592
RA_OF_ASC_NODE = 92.9121
ARG_OF_PERICENTER = 287.5281
MEAN_ANOMALY   = 182.3338

EPHEMERIS_TYPE = 0
CLASSIFICATION_TYPE = U
NORAD_CAT_ID   = 23561
ELEMENT_SET_NO = 999
REV_AT_EPOCH   = 61235
BSTAR          = .22238488E-3
MEAN_MOTION_DOT = .653E-5
MEAN_MOTION_DDOT = 0

CCSDS_OMM_VERS = 2.0
CREATION_DATE  = 
ORIGINATOR     = 

OBJECT_NAME    = SL-16 R/B
OBJECT_ID      = 1995-058B
CENTER_NAME    = EARTH
REF_FRAME      = TEME
TIME_SYSTEM    = UTC
MEAN_ELEMENT_THEORY = SGP/SGP4

EPOCH          = 2026-01-20T22:22:01.492608
MEAN_MOTION    = 14.15489526
ECCENTRICITY   = .00133581
INCLINATION    = 71.0217
RA_OF_ASC_NODE = 280.5223
ARG_OF_PERICENTER = 202.8662
MEAN_ANOMALY   = 157.1867

EPHEMERIS_TYPE = 0
CLASSIFICATION_TYPE = U
NORAD_CAT_ID   = 23705
ELEMENT_SET_NO = 999
REV_AT_EPOCH   = 56109
BSTAR          = -.56341496E-4
MEAN_MOTION_DOT = -.158E-5
MEAN_MOTION_DDOT = 0

CCSDS_OMM_VERS = 2.0
CREATION_DATE  = 
ORIGINATOR     = 

OBJECT_NAME    = SL-16 R/B
OBJECT_ID      = 1996-051B
CENTER_NAME    = EARTH
REF_FRAME      = TEME
TIME_SYSTEM    = UTC
MEAN_ELEMENT_THEORY = SGP/SGP4

EPOCH          = 2026-01-20T22:28:34.092480
MEAN_MOTION    = 14.12402050
ECCENTRICITY   = .00187093
INCLINATION    = 70.7585
RA_OF_ASC_NODE = 276.3176
ARG_OF_PERICENTER = 212.9134
MEAN_ANOMALY   = 147.0822

EPHEMERIS_TYPE = 0
CLASSIFICATION_TYPE = U
NORAD_CAT_ID   = 24298
ELEMENT_SET_NO = 999
REV_AT_EPOCH   = 51490
BSTAR          = .70826321E-4
MEAN_MOTION_DOT = .82E-6
MEAN_MOTION_DDOT = 0

CCSDS_OMM_VERS = 2.0
CREATION_DATE  = 
ORIGINATOR     = 

OBJECT_NAME    = ORBVIEW 2 (SEASTAR)
OBJECT_ID      = 1997-037A
CENTER_NAME    = EARTH
REF_FRAME      = TEME
TIME_SYSTEM    = UTC
MEAN_ELEMENT_THEORY = SGP/SGP4

EPOCH          = 2026-01-20T22:48:10.787904
MEAN_MOTION    = 14.35451508
ECCENTRICITY   = .0002128
INCLINATION    = 98.8488
RA_OF_ASC_NODE = 184.0191
ARG_OF_PERICENTER = 175.6376
MEAN_ANOMALY   = 184.4828

EPHEMERIS_TYPE = 0
CLASSIFICATION_TYPE = U
NORAD_CAT_ID   = 24883
ELEMENT_SET_NO = 999
REV_AT_EPOCH   = 50162
BSTAR          = .22296884E-3
MEAN_MOTION_DOT = .594E-5
MEAN_MOTION_DDOT = 0

